[{"OBJECT_NAME":"STARLINK-30839","OBJECT_ID":"2023-170D","EPOCH":"2026-03-09T09:46:17.730624","MEAN_MOTION":15.26735182,"ECCENTRICITY":0.00033949,"INCLINATION":43.0028,"RA_OF_ASC_NODE":195.1906,"ARG_OF_PERICENTER":147.1104,"MEAN_ANOMALY":212.9959,"EPHEMERIS_TYPE":0,"CLASSIFICATION_TYPE":"U","NORAD_CAT_ID":58209,"ELEMENT_SET_NO":999,"REV_AT_EPOCH":13026,"BSTAR":-3.1104021e-5,"MEAN_MOTION_DOT":-1.095e-5,"MEAN_MOTION_DDOT":0},{"OBJECT_NAME":"OBJECT F","OBJECT_ID":"2025-108F","EPOCH":"2026-03-09T23:20:53.522880","MEAN_MOTION":15.23792837,"ECCENTRICITY":0.00112374,"INCLINATION":97.4753,"RA_OF_ASC_NODE":146.7616,"ARG_OF_PERICENTER":356.2264,"MEAN_ANOMALY":3.8886,"EPHEMERIS_TYPE":0,"CLASSIFICATION_TYPE":"U","NORAD_CAT_ID":64092,"ELEMENT_SET_NO":999,"REV_AT_EPOCH":4437,"BSTAR":0.0010326251,"MEAN_MOTION_DOT":0.00024889,"MEAN_MOTION_DDOT":0}]
